GNOMES-1                
1 46266U 20059B   26068.53916665  .00004080  00000+0  33422-3 0  9991
2 46266  97.8057 278.7760 0005451 357.8604   2.2595 14.99848479300657
STARLINK-6041           
1 56478U 23064AG  26068.51797107  .00004877  00000+0  41651-3 0  9999
2 56478  69.9997 124.8907 0003042 271.0430  89.0380 14.98304487155713
